STARLINK-30875          
1 58224U 23170U   26068.37231528  .00000142  00000+0  14947-4 0  9992
2 58224  42.9974 195.7665 0000354 217.8694 142.2133 15.26737349130250
COSMOS 2576             
1 59773U 24092A   26068.82603826  .00015211  00000+0  56283-3 0  9991
2 59773  97.4253 186.0053 0005946 159.7731 200.3745 15.27760963101271
